[{"OBJECT_NAME":"STARLINK-36102","OBJECT_ID":"2025-281B","EPOCH":"2026-03-09T16:00:03.000096","MEAN_MOTION":15.27548752,"ECCENTRICITY":0.00017022,"INCLINATION":43.0042,"RA_OF_ASC_NODE":343.8058,"ARG_OF_PERICENTER":272.8951,"MEAN_ANOMALY":305.2793,"EPHEMERIS_TYPE":0,"CLASSIFICATION_TYPE":"U","NORAD_CAT_ID":66849,"ELEMENT_SET_NO":999,"REV_AT_EPOCH":577,"BSTAR":0.0015469241,"MEAN_MOTION_DOT":0.00042511,"MEAN_MOTION_DDOT":0},{"OBJECT_NAME":"CZ-2C R\/B","OBJECT_ID":"2014-014B","EPOCH":"2026-03-09T23:01:00.862464","MEAN_MOTION":15.34922702,"ECCENTRICITY":0.00700559,"INCLINATION":98.3314,"RA_OF_ASC_NODE":172.135,"ARG_OF_PERICENTER":276.2597,"MEAN_ANOMALY":83.0667,"EPHEMERIS_TYPE":0,"CLASSIFICATION_TYPE":"U","NORAD_CAT_ID":39625,"ELEMENT_SET_NO":999,"REV_AT_EPOCH":65564,"BSTAR":0.0004934259,"MEAN_MOTION_DOT":0.00018031,"MEAN_MOTION_DDOT":0}]
